NEUTRON-1               
1 46923U 98067RT  20360.94631466  .00011359  00000-0  19910-3 0  9996
2 46923  51.6421 119.1301 0002123 159.6607 200.4467 15.51071700  7921
1998-067RU              
1 46924U 98067RU  20361.06108927  .00023280  00000-0  38529-3 0  9995
2 46924  51.6421 118.3967 0001673 205.9483 154.1423 15.52076050  7906
DESCENT                 
1 46927U 98067RX  20360.62612138  .00010988  00000-0  19319-3 0  9990
2 46927  51.6419 120.7409 0002143 181.4420 178.6563 15.51020991  7791
